{
  "norad_id": 63933,
  "name": "STARLINK-33877",
  "history": [
    {
      "epoch": "2026-03-28T18:28:20.477280",
      "apogee_km": 574.0153884703968,
      "perigee_km": 570.0458697307122,
      "latitude_deg": -59.2407262449559,
      "longitude_deg": -72.8105808000546,
      "semi_major_axis_km": 6950.167629100554,
      "eccentricity": 0.00028557,
      "inclination_deg": 70.0015,
      "raan_deg": 226.2077,
      "arg_perigee_deg": 267.4461,
      "mean_anomaly_deg": 92.6371,
      "mean_motion_rev_day": 14.98338169
    },
    {
      "epoch": "2026-03-29T02:29:00.815424",
      "apogee_km": 574.0332833079592,
      "perigee_km": 570.0397136157417,
      "latitude_deg": -64.99366242991489,
      "longitude_deg": -40.76576063991524,
      "semi_major_axis_km": 6950.17349846185,
      "eccentricity": 0.0002873,
      "inclination_deg": 70.0014,
      "raan_deg": 225.3662,
      "arg_perigee_deg": 268.1408,
      "mean_anomaly_deg": 91.9422,
      "mean_motion_rev_day": 14.98336271
    }
  ]
}